{
"type": "FeatureCollection",
"name": "zone_footprints",
"crs": { "type": "name", "properties": { "name": "urn:ogc:def:crs:OGC:1.3:CRS84" } },
"features": [
{ "type": "Feature", "properties": { "zone": "North" }, "geometry": { "type": "Polygon", "coordinates": [ [ [ -76.1351, 43.039361696011497 ], [ -76.134805023207207, 43.039361696011497 ], [ -76.134805023207207, 43.039451527128996 ], [ -76.1351, 43.039451527128996 ], [ -76.1351, 43.039361696011497 ] ] ] } },
{ "type": "Feature", "properties": { "zone": "South" }, "geometry": { "type": "Polygon", "coordinates": [ [ [ -76.1351, 43.0392 ], [ -76.134805023207207, 43.0392 ], [ -76.134805023207207, 43.0392898311175 ], [ -76.1351, 43.0392898311175 ], [ -76.1351, 43.0392 ] ] ] } }
]
}
